NORAD_CAT_ID,OBJECT_NAME,OBJECT_TYPE,EPOCH,MEAN_MOTION,ECCENTRICITY,INCLINATION,RA_OF_ASC_NODE,ARG_OF_PERICENTER,MEAN_ANOMALY,BSTAR,MEAN_MOTION_DOT,MEAN_MOTION_DDOT,TLE_LINE0,TLE_LINE1,TLE_LINE2,SEMIMAJOR_AXIS,PERIOD,APOGEE,PERIGEE,DECAYED
51129.0,STARLINK-3396,PAYLOAD,2024-04-24 10:27:04,15.08846371,0.0001463,53.2156,130.8587,79.0514,281.0642,0.00011851,1.599e-05,0.0,0 STARLINK-3396,1 51129U 22005AB  24115.43547274  .00001599  00000-0  11851-3 0  9999,2 51129  53.2156 130.8587 0001463  79.0514 281.0642 15.08846371126560,6917.861,95.437,540.738,538.714,0.0
51129.0,STARLINK-3396,PAYLOAD,2024-04-25 10:17:51,15.0885056,0.0001453,53.2153,126.3969,86.783,273.3329,0.00014939,2.091e-05,0.0,0 STARLINK-3396,1 51129U 22005AB  24116.42906795  .00002091  00000-0  14939-3 0  9994,2 51129  53.2153 126.3969 0001453  86.7830 273.3329 15.08850560125588,6917.848,95.437,540.718,538.708,0.0
51129.0,STARLINK-3396,PAYLOAD,2024-04-26 03:47:05,15.08846563,0.0001513,53.2151,123.124,114.3366,245.7784,0.00016353,2.316e-05,0.0,0 STARLINK-3396,1 51129U 22005AB  24117.15770665  .00002316  00000-0  16353-3 0  9992,2 51129  53.2151 123.1240 0001513 114.3366 245.7784 15.08846563126826,6917.86,95.437,540.772,538.679,0.0
51129.0,STARLINK-3396,PAYLOAD,2024-04-26 06:57:52,15.08846125,0.0001418,53.2149,122.5297,92.9932,267.1223,0.00012999,1.782e-05,0.0,0 STARLINK-3396,1 51129U 22005AB  24117.29018690  .00001782  00000-0  12999-3 0  9998,2 51129  53.2149 122.5297 0001418  92.9932 267.1223 15.08846125125719,6917.862,95.437,540.708,538.746,0.0
51129.0,STARLINK-3396,PAYLOAD,2024-04-27 06:48:38,15.08847039,0.0001388,53.216,118.0694,93.3232,266.7919,6.0516e-05,6.75e-06,0.0,0 STARLINK-3396,1 51129U 22005AB  24118.28378357  .00000675  00000-0  60516-4 0  9996,2 51129  53.2160 118.0694 0001388  93.3232 266.7919 15.08847039126990,6917.859,95.437,540.684,538.764,0.0
51129.0,STARLINK-3396,PAYLOAD,2024-04-27 16:20:57,15.08848681,0.0001368,53.2165,116.2855,92.4592,267.6557,5.5875e-05,6.02e-06,0.0,0 STARLINK-3396,1 51129U 22005AB  24118.68121965  .00000602  00000-0  55875-4 0  9993,2 51129  53.2165 116.2855 0001368  92.4592 267.6557 15.08848681125925,6917.854,95.437,540.665,538.772,0.0
51129.0,STARLINK-3396,PAYLOAD,2024-04-28 03:28:40,15.08830489,0.0001462,53.2166,114.2046,93.1364,266.9795,-5.0255e-05,-1.087e-05,0.0,0 STARLINK-3396,1 51129U 22005AB  24119.14491550 -.00001087  00000-0 -50255-4 0  9992,2 51129  53.2166 114.2046 0001462  93.1364 266.9795 15.08830489127123,6917.909,95.438,540.786,538.763,0.0
51129.0,STARLINK-3396,PAYLOAD,2024-04-28 06:39:27,15.08830409,0.0001404,53.217,113.6115,90.4709,269.6444,-4.7104e-05,-1.037e-05,0.0,0 STARLINK-3396,1 51129U 22005AB  24119.27739620 -.00001037  00000-0 -47104-4 0  9993,2 51129  53.2170 113.6115 0001404  90.4709 269.6444 15.08830409126017,6917.91,95.438,540.746,538.803,0.0
51129.0,STARLINK-3396,PAYLOAD,2024-04-28 16:11:45,15.08834122,0.0001417,53.2176,111.8268,89.7245,270.3909,-1.1221e-05,-4.66e-06,0.0,0 STARLINK-3396,1 51129U 22005AB  24119.67483377 -.00000466  00000-0 -11221-4 0  9998,2 51129  53.2176 111.8268 0001417  89.7245 270.3909 15.08834122126079,6917.898,95.438,540.744,538.783,0.0
51129.0,STARLINK-3396,PAYLOAD,2024-04-29 04:54:50,15.08834511,0.0001585,53.2193,109.4519,100.86,259.257,8.0686e-05,9.96e-06,0.0,0 STARLINK-3396,1 51129U 22005AB  24120.20475264  .00000996  00000-0  80686-4 0  9992,2 51129  53.2193 109.4519 0001585 100.8600 259.2570 15.08834511127282,6917.897,95.438,540.859,538.666,0.0
51129.0,STARLINK-3396,PAYLOAD,2024-04-29 08:05:36,15.08837488,0.0001332,53.2182,108.854,91.2555,268.859,4.5953e-05,4.43e-06,0.0,0 STARLINK-3396,1 51129U 22005AB  24120.33723216  .00000443  00000-0  45953-4 0  9994,2 51129  53.2182 108.8540 0001332  91.2555 268.8590 15.08837488126170,6917.888,95.438,540.675,538.832,0.0
51129.0,STARLINK-3396,PAYLOAD,2024-04-29 22:24:05,15.08833942,0.0001436,53.2187,106.1781,90.9695,269.1461,0.00018523,2.661e-05,0.0,0 STARLINK-3396,1 51129U 22005AB  24120.93339213  .00002661  00000-0  18523-3 0  9996,2 51129  53.2187 106.1781 0001436  90.9695 269.1461 15.08833942126261,6917.899,95.438,540.757,538.77,0.0
51129.0,STARLINK-3396,PAYLOAD,2024-04-30 06:21:00,15.0883607,0.000142,53.2185,104.691,89.6795,270.436,0.00017182,2.447e-05,0.0,0 STARLINK-3396,1 51129U 22005AB  24121.26459370  .00002447  00000-0  17182-3 0  9992,2 51129  53.2185 104.6910 0001420  89.6795 270.4360 15.08836070127444,6917.892,95.438,540.74,538.775,0.0
51129.0,STARLINK-3396,PAYLOAD,2024-04-30 15:53:19,15.08842656,0.0001418,53.2184,102.9067,88.834,271.2815,0.00017965,2.573e-05,0.0,0 STARLINK-3396,1 51129U 22005AB  24121.66203032  .00002573  00000-0  17965-3 0  9997,2 51129  53.2184 102.9067 0001418  88.8340 271.2815 15.08842656126373,6917.872,95.437,540.718,538.756,0.0
51129.0,STARLINK-3396,PAYLOAD,2024-05-01 04:36:25,15.08837834,0.0001494,53.2189,100.5284,89.3042,270.8121,4.8374e-05,4.82e-06,0.0,0 STARLINK-3396,1 51129U 22005AB  24122.19195762  .00000482  00000-0  48374-4 0  9992,2 51129  53.2189 100.5284 0001494  89.3042 270.8121 15.08837834126458,6917.887,95.438,540.786,538.718,0.0
51129.0,STARLINK-3396,PAYLOAD,2024-05-01 15:44:06,15.08850615,0.0001595,53.2192,98.4435,83.2851,276.8323,1.8399e-05,5e-08,0.0,0 STARLINK-3396,1 51129U 22005AB  24122.65562801  .00000005  00000-0  18399-4 0  9990,2 51129  53.2192  98.4435 0001595  83.2851 276.8323 15.08850615127653,6917.848,95.437,540.816,538.61,0.0
51129.0,STARLINK-3396,PAYLOAD,2024-05-01 22:05:39,15.0884212,0.0001706,53.2168,97.2552,87.3184,272.8004,6.8925e-05,8.09e-06,0.0,0 STARLINK-3396,1 51129U 22005AB  24122.92059262  .00000809  00000-0  68925-4 0  9994,2 51129  53.2168  97.2552 0001706  87.3184 272.8004 15.08842120126564,6917.874,95.437,540.919,538.559,0.0
51129.0,STARLINK-3396,PAYLOAD,2024-05-02 04:27:12,15.08838853,0.000147,53.2176,96.066,92.3503,267.7658,5.4196e-07,-2.79e-06,0.0,0 STARLINK-3396,1 51129U 22005AB  24123.18555617 -.00000279  00000-0  54196-6 0  9997,2 51129  53.2176  96.0660 0001470  92.3503 267.7658 15.08838853127735,6917.884,95.438,540.766,538.732,0.0
51129.0,STARLINK-3396,PAYLOAD,2024-05-02 07:37:58,15.08840051,0.0001483,53.2178,95.4712,93.656,266.4601,9.8916e-07,-2.72e-06,0.0,0 STARLINK-3396,1 51129U 22005AB  24123.31803541 -.00000272  00000-0  98916-6 0  9995,2 51129  53.2178  95.4712 0001483  93.6560 266.4601 15.08840051126623,6917.88,95.438,540.771,538.719,0.0
51129.0,STARLINK-3396,PAYLOAD,2024-05-03 04:17:58,15.08843693,0.0001362,53.2179,91.6043,94.8147,265.3001,0.00013114,1.8e-05,0.0,0 STARLINK-3396,1 51129U 22005AB  24124.17914797  .00001800  00000-0  13114-3 0  9997,2 51129  53.2179  91.6043 0001362  94.8147 265.3001 15.08843693127885,6917.869,95.437,540.676,538.792,0.0
51129.0,STARLINK-3396,PAYLOAD,2024-05-03 07:28:44,15.08846973,0.0001711,53.218,91.0094,122.8281,237.2876,0.00011491,1.542e-05,0.0,0 STARLINK-3396,1 51129U 22005AB  24124.31162562  .00001542  00000-0  11491-3 0  9997,2 51129  53.2180  91.0094 0001711 122.8281 237.2876 15.08846973126775,6917.859,95.437,540.908,538.54,0.0
51129.0,STARLINK-3396,PAYLOAD,2024-05-03 15:25:40,15.08843724,0.0001483,53.2181,89.5232,111.5124,248.6027,0.00023074,3.387e-05,0.0,0 STARLINK-3396,1 51129U 22005AB  24124.64282515  .00003387  00000-0  23074-3 0  9993,2 51129  53.2181  89.5232 0001483 111.5124 248.6027 15.08843724126820,6917.869,95.437,540.76,538.708,0.0
51129.0,STARLINK-3396,PAYLOAD,2024-05-04 04:08:46,15.08828152,0.0001235,53.2171,87.1452,94.3321,265.7812,3.0127e-05,1.92e-06,0.0,0 STARLINK-3396,1 51129U 22005AB  24125.17276235  .00000192  00000-0  30127-4 0  9993,2 51129  53.2171  87.1452 0001235  94.3321 265.7812 15.08828152128034,6917.917,95.438,540.636,538.927,0.0
51129.0,STARLINK-3396,PAYLOAD,2024-05-05 03:59:33,15.08841802,0.000125,53.2184,82.6856,95.7453,264.3682,0.0001194,1.613e-05,0.0,0 STARLINK-3396,1 51129U 22005AB  24126.16635588  .00001613  00000-0  11940-3 0  9993,2 51129  53.2184  82.6856 0001250  95.7453 264.3682 15.08841802128187,6917.875,95.437,540.605,538.875,0.0
51129.0,STARLINK-3396,PAYLOAD,2024-05-05 07:10:19,15.08845874,0.0001281,53.2167,82.0901,94.8287,265.2852,9.706e-05,1.257e-05,0.0,0 STARLINK-3396,1 51129U 22005AB  24126.29883463  .00001257  00000-0  97060-4 0  9996,2 51129  53.2167  82.0901 0001281  94.8287 265.2852 15.08845874127071,6917.862,95.437,540.614,538.841,0.0
51129.0,STARLINK-3396,PAYLOAD,2024-05-06 13:22:38,15.0885668,0.0001351,53.2179,76.4406,99.9841,260.1303,0.00039338,5.981e-05,0.0,0 STARLINK-3396,1 51129U 22005AB  24127.55739081  .00005981  00000-0  39338-3 0  9993,2 51129  53.2179  76.4406 0001351  99.9841 260.1303 15.08856680127264,6917.829,95.436,540.629,538.76,0.0
51129.0,STARLINK-3396,PAYLOAD,2024-05-06 19:44:11,15.08845364,0.0001678,53.2171,75.2505,86.786,273.3324,0.00012597,1.718e-05,0.0,0 STARLINK-3396,1 51129U 22005AB  24127.82235530  .00001718  00000-0  12597-3 0  9995,2 51129  53.2171  75.2505 0001678  86.7860 273.3324 15.08845364128436,6917.864,95.437,540.89,538.568,0.0
51129.0,STARLINK-3396,PAYLOAD,2024-05-07 13:13:25,15.08849183,0.0001557,53.2186,71.9807,93.2167,266.9003,0.00012133,1.644e-05,0.0,0 STARLINK-3396,1 51129U 22005AB  24128.55099083  .00001644  00000-0  12133-3 0  9991,2 51129  53.2186  71.9807 0001557  93.2167 266.9003 15.08849183127411,6917.852,95.437,540.794,538.64,0.0
51129.0,STARLINK-3396,PAYLOAD,2024-05-08 03:31:54,15.08833419,0.0001356,53.2175,69.3041,97.5754,262.5392,-9.9272e-05,-1.867e-05,0.0,0 STARLINK-3396,1 51129U 22005AB  24129.14715809 -.00001867  00000-0 -99272-4 0  9997,2 51129  53.2175  69.3041 0001356  97.5754 262.5392 15.08833419128639,6917.901,95.438,540.704,538.827,0.0
51129.0,STARLINK-3396,PAYLOAD,2024-05-09 04:58:06,15.08807424,0.0001171,53.218,64.5452,92.3565,267.7561,-0.00039881,-6.623e-05,0.0,0 STARLINK-3396,1 51129U 22005AB  24130.20701395 -.00006623  00000-0 -39881-3 0  9995,2 51129  53.2180  64.5452 0001171  92.3565 267.7561 15.08807424128795,6917.98,95.44,540.655,539.035,0.0
